SOYUZ-MS 28             
1 66664U 25275A   25353.76392193  .00006675  00000+0  12626-3 0  9990
2 66664  51.6318 107.6945 0003187 273.0117  87.0507 15.49672026  3536
1998-067XS              
1 66906U 98067XS  25353.81788232  .00020233  00000+0  34987-3 0  9997
2 66906  51.6311 107.3061 0002966 238.2809 121.7891 15.50933488  2714
1998-067XT              
1 66907U 98067XT  25353.48808759  .00047666  00000+0  77339-3 0  9995
2 66907  51.6306 108.8528 0003998 265.7173  94.3360 15.52255247  2660
1998-067XU              
1 66908U 98067XU  25352.58606995  .00054298  00000+0  87908-3 0  9996
2 66908  51.6306 113.3296 0003983 260.0245 100.0295 15.52259493  2520
SILVERSAT               
1 66909U 98067XV  25353.55080352  .00049748  00000+0  79912-3 0  9998
2 66909  51.6306 108.5226 0003839 268.6960  91.3590 15.52516520  2671
1998-067XW              
1 66910U 98067XW  25353.54901825  .00043130  00000+0  69409-3 0  9995
2 66910  51.6305 108.5102 0004382 243.3936 116.6605 15.52526300  2677
1998-067XX              
1 66911U 98067XX  25353.80422408  .00052143  00000+0  82359-3 0  9993
2 66911  51.6304 107.2150 0003934 254.2011 105.8545 15.52964022  2707
1998-067XY              
1 66912U 98067XY  25353.61960698  .00038197  00000+0  63264-3 0  9998
2 66912  51.6307 108.2310 0004012 260.8810  99.1725 15.51780846  2678
